STARLINK-11616 [DTC]    
1 63137U 25043F   25177.56311971  .00303150  00000+0  22608-2 0  9990
2 63137  42.9991 354.2449 0002549 262.7912  97.2666 15.71050506 19192
STARLINK-11611 [DTC]    
1 63138U 25043G   25177.66668981 -.00126950  00000+0 -99912-3 0  9994
2 63138  42.9997 353.8337 0002116 267.8520 233.5351 15.70882046  5957
STARLINK-11628 [DTC]    
1 63139U 25043H   25177.90137253  .00158466  00000+0  12136-2 0  9992
2 63139  43.0008 352.4929 0001231 280.9765  79.0964 15.70868673 19249
STARLINK-11607 [DTC]    
1 63140U 25043J   25177.50394021  .00168831  00000+0  12872-2 0  9992
2 63140  42.9995 354.6618 0002385 259.9313 100.1286 15.70940129 19182
STARLINK-11522 [DTC]    
1 63141U 25043K   25177.89075207  .00283626  00000+0  21325-2 0  9990
2 63141  43.0002 352.4041 0002785 286.5143  73.5419 15.70914821 19069
STARLINK-11503 [DTC]    
1 63142U 25043L   25177.55690605  .00194220  00000+0  14827-2 0  9999
2 63142  43.0019 354.1964 0005510 297.3580  62.6726 15.70815283 19012
STARLINK-11579 [DTC]    
1 63143U 25043M   25177.49863264  .00154151  00000+0  11776-2 0  9995
2 63143  42.9987 354.6209 0000947 264.1818  95.8942 15.70942712 19068
STARLINK-11581 [DTC]    
1 63144U 25043N   25177.91668981 -.00026452  00000+0 -20333-3 0  9996
2 63144  43.0000 352.4732 0001812 274.6764 142.0665 15.70835546  6050
STARLINK-32949          
1 63145U 25043P   25177.92741352  .00011976  00000+0  44382-3 0  9995
2 63145  43.0003  20.9169 0001356 271.7789  88.2907 15.27593291 18810
STARLINK-32952          
1 63146U 25043Q   25177.63662705  .00010625  00000+0  39492-3 0  9994
2 63146  43.0026  29.0802 0001127 266.2401  93.8322 15.27591965 18758
STARLINK-32936          
1 63147U 25043R   25177.31226342  .00012417  00000+0  45969-3 0  9990
2 63147  43.0044  30.9641 0002157 263.0550  97.0056 15.27601340 18079
STARLINK-32937          
1 63148U 25043S   25177.90171352  .00021777  00000+0  79809-3 0  9995
2 63148  43.0021  20.7225 0001417 275.0284  85.0405 15.27598753 18242
STARLINK-32939          
1 63149U 25043T   25177.30352533  .00017931  00000+0  64276-3 0  9991
2 63149  42.9995  23.9768 0000744  66.8517 293.2414 15.28427631 18155
STARLINK-32919          
1 63150U 25043U   25177.57863816  .00014727  00000+0  54356-3 0  9991
2 63150  42.9997  22.5979 0001237 250.8737 109.1981 15.27584323 18879
STARLINK-32876          
1 63151U 25043V   25177.61240791  .00029099  00000+0  10356-2 0  9997
2 63151  43.0013  21.9875 0001057 266.2696  93.8035 15.28430008 18201
STARLINK-32915          
1 63152U 25043W   25177.31354285  .00009102  00000+0  33974-3 0  9994
2 63152  43.0037  30.9262 0001660 269.1650  90.9012 15.27591983 18077
SEDNA-2                 
1 63153U 25009DQ  25177.75686603  .00006324  00000+0  44739-3 0  9991
2 63153  97.4927 255.7216 0010476 193.7098 166.3846 15.05158756 24532
TJS-15                  
1 63157U 25045A   25177.95553839 -.00000237  00000+0  00000+0 0  9998
2 63157   0.2772  91.9758 0003595  84.1260 173.4996  1.00269096  1197
QIANFAN-73              
1 63159U 25046A   25177.88510905  .00000060  00000+0  74600-4 0  9995
2 63159  88.9826 337.4094 0012963 248.7548 111.2219 13.50952160 24618
QIANFAN-74              
1 63160U 25046B   25177.86863781  .00000062  00000+0  77270-4 0  9996
2 63160  88.9826 337.2996 0013626 251.7660 108.2008 13.50948564 24676
QIANFAN-75              
1 63161U 25046C   25177.85639079  .00000074  00000+0  95635-4 0  9995
2 63161  88.9827 337.5321 0014034 252.3644 107.5975 13.50953261 24547
QIANFAN-76              
1 63162U 25046D   25177.85211784  .00000118  00000+0  16374-3 0  9996
2 63162  88.9828 337.5139 0011603 252.7078 107.2804 13.50956018 24552
QIANFAN-77              
1 63163U 25046E   25177.88976223  .00000110  00000+0  70346-4 0  9998
2 63163  88.9826 336.8994 0012618 242.9876 117.0013 13.95988210 24892
QIANFAN-78              
1 63164U 25046F   25177.89335574  .00000078  00000+0  10295-3 0  9997
2 63164  88.9827 337.3754 0012938 255.5637 104.4079 13.50950831 24637
QIANFAN-79              
1 63165U 25046G   25177.92213179  .00000091  00000+0  12276-3 0  9994
2 63165  88.9830 337.4734 0012644 253.4302 106.5461 13.50952794 24583
QIANFAN-80              
1 63166U 25046H   25177.86460550  .00000052  00000+0  62555-4 0  9998
2 63166  88.9828 337.1909 0011590 258.4804 101.5046 13.50949556 24736
QIANFAN-81              
1 63167U 25046J   25177.85226198  .00000080  00000+0  10060-3 0  9990
2 63167  88.9828 337.2620 0013509 247.6704 112.3017 13.53770167 24684
QIANFAN-82              
1 63168U 25046K   25177.87683566  .00000071  00000+0  91247-4 0  9996
2 63168  88.9827 337.3016 0010767 253.8735 106.1231 13.50954757 24674
QIANFAN-83              
1 63169U 25046L   25177.86871400  .00000106  00000+0  12164-3 0  9991
2 63169  88.9827 337.4091 0012058 247.6556 112.3324 13.61921497 24619
QIANFAN-84              
1 63170U 25046M   25177.83163679  .00000094  00000+0  12669-3 0  9998
2 63170  88.9827 337.4394 0013788 250.5303 109.4358 13.50953482 24599
QIANFAN-85              
1 63171U 25046N   25177.90155516  .00000034  00000+0  34389-4 0  9996
2 63171  88.9827 337.3046 0011126 252.6146 107.3789 13.50951690 24678
QIANFAN-86              
1 63172U 25046P   25177.83572976  .00000039  00000+0  42450-4 0  9995
2 63172  88.9829 337.1695 0008962 257.3743 102.6406 13.50951580 24748
QIANFAN-87              
1 63173U 25046Q   25177.88093928  .00000061  00000+0  75310-4 0  9992
2 63173  88.9825 337.2830 0009738 251.0301 108.9795 13.50955682 24680
QIANFAN-88              
1 63174U 25046R   25177.89754167  .00000045  00000+0  51629-4 0  9992
2 63174  88.9828 337.2317 0010026 261.0797  98.9219 13.50951864 24717
QIANFAN-89              
1 63175U 25046S   25177.86050269  .00000040  00000+0  43587-4 0  9991
2 63175  88.9828 337.4246 0014437 251.0720 108.8867 13.50956517 24604
QIANFAN-90              
1 63176U 25046T   25177.88924173  .00000068  00000+0  87181-4 0  9996
2 63176  88.9828 337.3937 0011419 248.0478 111.9460 13.50951997 24627
PUNCH-NFI (SMEX 15A)    
1 63178U 25047A   25177.27427263  .00000385  00000+0  66004-4 0  9993
2 63178  97.9543   4.1766 0010382 215.9359 144.1152 14.74126505 15634
PUNCH-WFI 1 (SMEX 15B)  
1 63179U 25047B   25177.48703243  .00000394  00000+0  67705-4 0  9991
2 63179  97.9562   4.3910 0009560 228.1697 131.8696 14.73847971 15661
PUNCH-WFI 3 (SMEX 15D)  
1 63180U 25047C   25177.44232455  .00000396  00000+0  68350-4 0  9990
2 63180  97.9520   4.2395 0009193 225.0297 135.0166 14.73676012 15650
PUNCH-WFI 2 (SMEX 15C)  
1 63181U 25047D   25177.25999896  .00000394  00000+0  68476-4 0  9996
2 63181  97.9541   4.0391 0008385 232.1316 127.9135 14.73339031 15621
SPHEREX (MIDEX 9)       
1 63182U 25047E   25177.63513060  .00000675  00000+0  11290-3 0  9997
2 63182  97.9556   4.3394 0009254 250.7550 109.2656 14.72957262 15684
STARLINK-11602 [DTC]    
1 63183U 25048A   25177.74184630  .00141589  00000+0  10868-2 0  9997
2 63183  43.0002  62.9902 0003774 293.6623  66.3849 15.70865736 17880
STARLINK-11617 [DTC]    
1 63184U 25048B   25177.73653604  .00278218  00000+0  20844-2 0  9994
2 63184  43.0010  62.9463 0001968 253.1417 106.9235 15.71017039 18266
STARLINK-11618 [DTC]    
1 63185U 25048C   25177.70468099  .00260656  00000+0  19781-2 0  9999
2 63185  42.9999  62.6908 0001481 275.6348  84.4351 15.70763815 18251
STARLINK-11646 [DTC]    
1 63186U 25048D   25177.37615800  .00185645  00000+0  14156-2 0  9992
2 63186  42.9987  64.5192 0001953  45.3059 314.7968 15.70883156 18210
STARLINK-11622 [DTC]    
1 63187U 25048E   25177.74715511  .00147473  00000+0  11310-2 0  9990
2 63187  43.0004  63.0317 0003031 283.4978  76.5551 15.70868909 18265
STARLINK-11642 [DTC]    
1 63188U 25048F   25177.72591701  .00263051  00000+0  19840-2 0  9999
2 63188  43.0007  62.8596 0001735 262.7261  97.3409 15.70903771 18269
STARLINK-11639 [DTC]    
1 63189U 25048G   25177.71530339  .00148672  00000+0  11396-2 0  9998
2 63189  43.0003  62.7734 0001809 271.0456  89.0205 15.70879823 18262
STARLINK-11637 [DTC]    
1 63190U 25048H   25177.87523241  .00281824  00000+0  21303-2 0  9997
2 63190  42.9995  62.2694 0001117 247.8747 112.2002 15.70793527 18280
STARLINK-11647 [DTC]    
1 63191U 25048J   25177.70998604  .00188496  00000+0  14363-2 0  9998
2 63191  42.9997  62.7266 0001486 252.2883 107.7822 15.70891735 18260
STARLINK-11643 [DTC]    
1 63192U 25048K   25177.72060740  .00143060  00000+0  10984-2 0  9995
2 63192  43.0031  62.8157 0002094 271.4799  88.5829 15.70859082 18269
STARLINK-11635 [DTC]    
1 63193U 25048L   25177.38146086  .00237884  00000+0  18007-2 0  9998
2 63193  42.9978  64.5614 0000517 329.0255  31.0582 15.70893917 18219
STARLINK-11636 [DTC]    
1 63194U 25048M   25177.73122524  .00252504  00000+0  19084-2 0  9991
2 63194  43.0005  62.9002 0001624 250.4166 109.6527 15.70886584 18262
STARLINK-11631 [DTC]    
1 63195U 25048N   25177.05305023  .00253188  00000+0  19166-2 0  9994
2 63195  42.9994  67.2860 0001480 278.4499  81.6201 15.70846722 18153
STARLINK-32946          
1 63196U 25048P   25177.74912801  .00016702  00000+0  61471-3 0  9995
2 63196  42.9977  94.7388 0000487 319.7129  40.3686 15.27599945 17905
STARLINK-32960          
1 63197U 25048Q   25176.48156506  .00011262  00000+0  41806-3 0  9994
2 63197  43.0006  98.0551 0001014 288.7604  71.3138 15.27588004 17360
STARLINK-32904          
1 63198U 25048R   25177.81612517  .00017216  00000+0  63356-3 0  9991
2 63198  43.0032  90.0067 0002084 257.4197 102.6422 15.27586304 17963
STARLINK-32931          
1 63199U 25048S   25177.77516064  .00016506  00000+0  60770-3 0  9995
2 63199  42.9946  90.5621 0000540 317.1935  42.8874 15.27594888 18127
STARLINK-32934          
1 63200U 25048T   25177.82255412  .00021439  00000+0  78610-3 0  9994
2 63200  43.0019  90.0585 0001497 269.8361  90.2319 15.27589420 17963
